{"fetched_at":"2026-07-11T09:24:30.225Z","source":"https://celestrak.org/NORAD/elements/gp.php?NAME=NUSAT&FORMAT=JSON","constellation":"satellogic","records":[{"OBJECT_NAME":"NUSAT-47","OBJECT_ID":"2025-276CF","EPOCH":"2026-07-10T23:43:48.995328","CLASSIFICATION_TYPE":"U","MEAN_MOTION":15.205558,"ECCENTRICITY":0.0000166,"INCLINATION":97.4186,"RA_OF_ASC_NODE":265.221,"ARG_OF_PERICENTER":271.7059,"MEAN_ANOMALY":88.4158,"EPHEMERIS_TYPE":0,"NORAD_CAT_ID":66743,"ELEMENT_SET_NO":999,"REV_AT_EPOCH":3404,"BSTAR":0.00015387,"MEAN_MOTION_DOT":0.00003299,"MEAN_MOTION_DDOT":0},{"OBJECT_NAME":"NUSAT-53 (JANE GOODALL)","OBJECT_ID":"2026-067S","EPOCH":"2026-07-11T02:48:31.481856","CLASSIFICATION_TYPE":"U","MEAN_MOTION":15.18822986,"ECCENTRICITY":0.0001116,"INCLINATION":97.4567,"RA_OF_ASC_NODE":150.2903,"ARG_OF_PERICENTER":2.8275,"MEAN_ANOMALY":357.2966,"EPHEMERIS_TYPE":0,"NORAD_CAT_ID":68432,"ELEMENT_SET_NO":999,"REV_AT_EPOCH":1557,"BSTAR":0.00015658,"MEAN_MOTION_DOT":0.00003192,"MEAN_MOTION_DDOT":0},{"OBJECT_NAME":"NUSAT-54 (BRANCA MARQUES)","OBJECT_ID":"2026-067AC","EPOCH":"2026-07-10T02:49:18.054048","CLASSIFICATION_TYPE":"U","MEAN_MOTION":15.17965627,"ECCENTRICITY":0.00044132,"INCLINATION":97.4548,"RA_OF_ASC_NODE":149.1548,"ARG_OF_PERICENTER":16.7434,"MEAN_ANOMALY":343.3945,"EPHEMERIS_TYPE":0,"NORAD_CAT_ID":68442,"ELEMENT_SET_NO":999,"REV_AT_EPOCH":1541,"BSTAR":0.00017813328,"MEAN_MOTION_DOT":0.00003551,"MEAN_MOTION_DDOT":0}]}
