NUSAT-47                
1 66743U 25276CF  26191.98876152  .00003299  00000+0  15387-3 0  9992
2 66743  97.4186 265.2210 0000166 271.7059  88.4158 15.20555800 34041
NUSAT-53 (JANE GOODALL) 
1 68432U 26067S   26192.11703104  .00003192  00000+0  15658-3 0  9993
2 68432  97.4567 150.2903 0001116   2.8275 357.2966 15.18822986 15572
NUSAT-54 (BRANCA MARQU*)
1 68442U 26067AC  26191.11757007  .00003551  00000+0  17813-3 0  9998
2 68442  97.4548 149.1548 0004413  16.7434 343.3945 15.17965627 15413
